******************************************************************************* Revised: October 01, 2020            Neptune                               899  PHYSICAL DATA (update 2020-Oct-01):  Mass x10^24 (kg)      =                 Density (g/cm^3)       =  1.638  Equat. radius (1 bar) = 24766+-15 km    Volume, 10^10 km^3     = 6254       Vol. mean radius (km) = 24624+-21       Polar radius (km)      = 24342+-30  Geometric Albedo      = 0.41            Flattening             =  0.0171  Sid. rot. period (III)= 16.11+-0.01 hr  Sid. rot. rate (rad/s) =  0.000108338   Mean solar day, h     =~16.11 h           GM (km^3/s^2)         = 6835099.97      GM 1-sigma (km^3/s^2)  = +-10   Equ. grav, ge (m/s^2) = 11.15           Pol. grav, gp (m/s^2)  = 11.41+-0.03  Visual magnitude V(1,0)= -6.87  Vis. mag. (opposition)=  +7.84          Obliquity to orbit     = 28.32 deg  Sidereal orbit period = 164.788501027 y Sidereal orbit period  = 60189 d  Mean daily motion     = 0.006020076dg/d Mean orbit velocity    =  5.43 km/s   Atmos. temp. (1 bar)  =  72+-2 K        Escape speed (1 bar)  =  23.5 km/s       Aroche(ice)/Rp        =  2.98           Hill's sphere rad., Rp = 4700                                 Perihelion  Aphelion    Mean  Solar Constant (W/m^2)         1.54        1.49        1.51  Maximum Planetary IR (W/m^2)   0.52        0.52        0.52  Minimum Planetary IR (W/m^2)   0.52        0.52        0.52*******************************************************************************  *******************************************************************************Ephemeris / WWW_USER Fri Jan 29 14:25:27 2021 Pasadena, USA      / Horizons*******************************************************************************Target body name: Neptune (899)                   {source: nep096}Center body name: Solar System Barycenter (0)     {source: DE431mx}Center-site name: BODY CENTER*******************************************************************************Start time      : A.D. 2021-Jan-01 00:00:00.0000 TDBStop  time      : A.D. 2021-Jan-02 00:00:00.0000 TDBStep-size       : 1440 minutes*******************************************************************************Center geodetic : 0.00000000,0.00000000,0.0000000 {E-lon(deg),Lat(deg),Alt(km)}Center cylindric: 0.00000000,0.00000000,0.0000000 {E-lon(deg),Dxy(km),Dz(km)}Center radii    : (undefined)                                                  Output units    : KM-SOutput type     : GEOMETRIC cartesian statesOutput format   : 2 (position and velocity)Reference frame : Ecliptic of J2000.0*******************************************************************************            JDTDB,            Calendar Date (TDB),                      X,                      Y,                      Z,                     VX,                     VY,                     VZ,**************************************************************************************************************************************************************************************************$$SOE2459215.500000000, A.D. 2021-Jan-01 00:00:00.0000,  4.406236823119367E+09, -7.817717029438620E+08, -8.544716559465778E+07,  9.128318250443109E-01,  5.384082384462778E+00, -1.312924982850703E-01,2459216.500000000, A.D. 2021-Jan-02 00:00:00.0000,  4.406315695765962E+09, -7.813064848451109E+08, -8.545850500326604E+07,  9.129930631318158E-01,  5.384769897209166E+00, -1.313266738986256E-01,$$EOE**************************************************************************************************************************************************************************************************Coordinate system description:  Ecliptic at the standard reference epoch    Reference epoch: J2000.0    X-Y plane: adopted Earth orbital plane at the reference epoch               Note: obliquity of 84381.448 arcseconds (IAU76) wrt ICRF equator    X-axis   : ICRF    Z-axis   : perpendicular to the X-Y plane in the directional (+ or -) sense               of Earth's north pole at the reference epoch.  Symbol meaning:    JDTDB    Julian Day Number, Barycentric Dynamical Time      X      X-component of position vector (km)      Y      Y-component of position vector (km)      Z      Z-component of position vector (km)      VX     X-component of velocity vector (km/sec)                                 VY     Y-component of velocity vector (km/sec)                                 VZ     Z-component of velocity vector (km/sec)                           Geometric states/elements have no aberrations applied. Computations by ...     Solar System Dynamics Group, Horizons On-Line Ephemeris System     4800 Oak Grove Drive, Jet Propulsion Laboratory     Pasadena, CA  91109   USA     Information  : https://ssd.jpl.nasa.gov/     Documentation: https://ssd.jpl.nasa.gov/?horizons_doc     Connect      : https://ssd.jpl.nasa.gov/?horizons (browser)                    telnet ssd.jpl.nasa.gov 6775       (command-line)                    e-mail command interface available                    Script and CGI interfaces available     Author       : Jon.D.Giorgini@jpl.nasa.gov*******************************************************************************